{"type":"FeatureCollection","features":[{"type":"Feature","properties":{"name":"Zimbabwe","labelrank":3,"name_he":"זימבבואה"},"geometry":{"type":"Point","coordinates":[29.925,-18.912]}},{"type":"Feature","properties":{"name":"Zambia","labelrank":3,"name_he":"זמביה"},"geometry":{"type":"Point","coordinates":[26.395,-14.661]}},{"type":"Feature","properties":{"name":"Yemen","labelrank":3,"name_he":"תימן"},"geometry":{"type":"Point","coordinates":[45.874,15.328]}},{"type":"Feature","properties":{"name":"Vietnam","labelrank":2,"name_he":"וייטנאם"},"geometry":{"type":"Point","coordinates":[105.387,21.715]}},{"type":"Feature","properties":{"name":"Venezuela","labelrank":3,"name_he":"ונצואלה"},"geometry":{"type":"Point","coordinates":[-64.599,7.182]}},{"type":"Feature","properties":{"name":"Vatican","labelrank":6,"name_he":"קריית הוותיקן"},"geometry":{"type":"Point","coordinates":[12.453,41.903]}},{"type":"Feature","properties":{"name":"Vanuatu","labelrank":4,"name_he":"ונואטו"},"geometry":{"type":"Point","coordinates":[166.909,-15.372]}},{"type":"Feature","properties":{"name":"Uzbekistan","labelrank":3,"name_he":"אוזבקיסטן"},"geometry":{"type":"Point","coordinates":[64.005,41.694]}},{"type":"Feature","properties":{"name":"Uruguay","labelrank":4,"name_he":"אורוגוואי"},"geometry":{"type":"Point","coordinates":[-55.967,-32.961]}},{"type":"Feature","properties":{"name":"Micronesia","labelrank":6,"name_he":"מיקרונזיה"},"geometry":{"type":"Point","coordinates":[158.234,6.888]}},{"type":"Feature","properties":{"name":"Marshall Is.","labelrank":6,"name_he":"איי מרשל"},"geometry":{"type":"Point","coordinates":[171.194,7.083]}},{"type":"Feature","properties":{"name":"N. Mariana Is.","labelrank":6,"name_he":"איי מריאנה הצפוניים"},"geometry":{"type":"Point","coordinates":[145.734,15.188]}},{"type":"Feature","properties":{"name":"U.S. Virgin Is.","labelrank":6,"name_he":"איי הבתולה של ארצות הברית"},"geometry":{"type":"Point","coordinates":[-64.779,17.747]}},{"type":"Feature","properties":{"name":"Guam","labelrank":6,"name_he":"גואם"},"geometry":{"type":"Point","coordinates":[144.704,13.354]}},{"type":"Feature","properties":{"name":"American Samoa","labelrank":4,"name_he":"סמואה האמריקנית"},"geometry":{"type":"Point","coordinates":[-170.747,-14.327]}},{"type":"Feature","properties":{"name":"Puerto Rico","labelrank":5,"name_he":"פוארטו ריקו"},"geometry":{"type":"Point","coordinates":[-66.481,18.235]}},{"type":"Feature","properties":{"name":"United States of America","labelrank":2,"name_he":"ארצות הברית"},"geometry":{"type":"Point","coordinates":[-97.483,39.538]}},{"type":"Feature","properties":{"name":"S. Geo. and the Is.","labelrank":4,"name_he":"איי ג'ורג'יה הדרומית ואיי סנדוויץ' הדרומיים"},"geometry":{"type":"Point","coordinates":[-31.063,-55.683]}},{"type":"Feature","properties":{"name":"Br. Indian Ocean Ter.","labelrank":5,"name_he":"הטריטוריה הבריטית באוקיינוס ההודי"},"geometry":{"type":"Point","coordinates":[71.348,-6.191]}},{"type":"Feature","properties":{"name":"Saint Helena","labelrank":6,"name_he":"סנט הלנה"},"geometry":{"type":"Point","coordinates":[-5.713,-15.95]}},{"type":"Feature","properties":{"name":"Pitcairn Is.","labelrank":4,"name_he":"פיטקרן"},"geometry":{"type":"Point","coordinates":[-128.318,-24.365]}},{"type":"Feature","properties":{"name":"Anguilla","labelrank":6,"name_he":"אנגווילה"},"geometry":{"type":"Point","coordinates":[-63.026,18.243]}},{"type":"Feature","properties":{"name":"Falkland Is.","labelrank":5,"name_he":"איי פוקלנד"},"geometry":{"type":"Point","coordinates":[-58.739,-51.609]}},{"type":"Feature","properties":{"name":"Cayman Is.","labelrank":5,"name_he":"איי קיימן"},"geometry":{"type":"Point","coordinates":[-81.241,19.32]}},{"type":"Feature","properties":{"name":"Bermuda","labelrank":6,"name_he":"ברמודה"},"geometry":{"type":"Point","coordinates":[-64.764,32.297]}},{"type":"Feature","properties":{"name":"British Virgin Is.","labelrank":6,"name_he":"איי הבתולה הבריטיים"},"geometry":{"type":"Point","coordinates":[-64.637,18.427]}},{"type":"Feature","properties":{"name":"Turks and Caicos Is.","labelrank":6,"name_he":"איי טרקס וקייקוס"},"geometry":{"type":"Point","coordinates":[-71.753,21.817]}},{"type":"Feature","properties":{"name":"Montserrat","labelrank":6,"name_he":"מונטסראט"},"geometry":{"type":"Point","coordinates":[-62.188,16.737]}},{"type":"Feature","properties":{"name":"Jersey","labelrank":6,"name_he":"ג'רזי"},"geometry":{"type":"Point","coordinates":[-2.09,49.221]}},{"type":"Feature","properties":{"name":"Guernsey","labelrank":6,"name_he":"גרנזי"},"geometry":{"type":"Point","coordinates":[-2.562,49.464]}},{"type":"Feature","properties":{"name":"Isle of Man","labelrank":6,"name_he":"האי מאן"},"geometry":{"type":"Point","coordinates":[-4.53,54.221]}},{"type":"Feature","properties":{"name":"United Kingdom","labelrank":2,"name_he":"הממלכה המאוחדת"},"geometry":{"type":"Point","coordinates":[-2.116,54.403]}},{"type":"Feature","properties":{"name":"United Arab Emirates","labelrank":4,"name_he":"איחוד האמירויות הערביות"},"geometry":{"type":"Point","coordinates":[54.547,23.466]}},{"type":"Feature","properties":{"name":"Ukraine","labelrank":3,"name_he":"אוקראינה"},"geometry":{"type":"Point","coordinates":[32.141,49.725]}},{"type":"Feature","properties":{"name":"Uganda","labelrank":3,"name_he":"אוגנדה"},"geometry":{"type":"Point","coordinates":[32.949,1.973]}},{"type":"Feature","properties":{"name":"Turkmenistan","labelrank":4,"name_he":"טורקמניסטן"},"geometry":{"type":"Point","coordinates":[58.677,39.855]}},{"type":"Feature","properties":{"name":"Turkey","labelrank":2,"name_he":"טורקיה"},"geometry":{"type":"Point","coordinates":[34.508,39.345]}},{"type":"Feature","properties":{"name":"Tunisia","labelrank":3,"name_he":"תוניסיה"},"geometry":{"type":"Point","coordinates":[9.008,33.687]}},{"type":"Feature","properties":{"name":"Trinidad and Tobago","labelrank":5,"name_he":"טרינידד וטובגו"},"geometry":{"type":"Point","coordinates":[-60.918,10.999]}},{"type":"Feature","properties":{"name":"Tonga","labelrank":4,"name_he":"טונגה"},"geometry":{"type":"Point","coordinates":[-175.163,-21.21]}},{"type":"Feature","properties":{"name":"Togo","labelrank":6,"name_he":"טוגו"},"geometry":{"type":"Point","coordinates":[1.058,8.807]}},{"type":"Feature","properties":{"name":"Timor-Leste","labelrank":5,"name_he":"מזרח טימור"},"geometry":{"type":"Point","coordinates":[125.855,-8.804]}},{"type":"Feature","properties":{"name":"Thailand","labelrank":3,"name_he":"תאילנד"},"geometry":{"type":"Point","coordinates":[101.073,15.46]}},{"type":"Feature","properties":{"name":"Tanzania","labelrank":3,"name_he":"טנזניה"},"geometry":{"type":"Point","coordinates":[34.959,-6.052]}},{"type":"Feature","properties":{"name":"Tajikistan","labelrank":4,"name_he":"טג׳יקיסטן"},"geometry":{"type":"Point","coordinates":[72.587,38.2]}},{"type":"Feature","properties":{"name":"Taiwan","labelrank":3,"name_he":"טאיוואן"},"geometry":{"type":"Point","coordinates":[120.868,23.652]}},{"type":"Feature","properties":{"name":"Syria","labelrank":3,"name_he":"סוריה"},"geometry":{"type":"Point","coordinates":[38.278,35.007]}},{"type":"Feature","properties":{"name":"Switzerland","labelrank":4,"name_he":"שווייץ"},"geometry":{"type":"Point","coordinates":[7.464,46.719]}},{"type":"Feature","properties":{"name":"Sweden","labelrank":3,"name_he":"שוודיה"},"geometry":{"type":"Point","coordinates":[19.017,65.859]}},{"type":"Feature","properties":{"name":"eSwatini","labelrank":4,"name_he":"אסוואטיני"},"geometry":{"type":"Point","coordinates":[31.467,-26.534]}},{"type":"Feature","properties":{"name":"Suriname","labelrank":4,"name_he":"סורינאם"},"geometry":{"type":"Point","coordinates":[-55.911,4.144]}},{"type":"Feature","properties":{"name":"S. Sudan","labelrank":3,"name_he":"דרום סודאן"},"geometry":{"type":"Point","coordinates":[30.39,7.23]}},{"type":"Feature","properties":{"name":"Sudan","labelrank":3,"name_he":"סודאן"},"geometry":{"type":"Point","coordinates":[29.261,16.331]}},{"type":"Feature","properties":{"name":"Sri Lanka","labelrank":3,"name_he":"סרי לנקה"},"geometry":{"type":"Point","coordinates":[80.705,7.581]}},{"type":"Feature","properties":{"name":"Spain","labelrank":2,"name_he":"ספרד"},"geometry":{"type":"Point","coordinates":[-3.465,40.091]}},{"type":"Feature","properties":{"name":"South Korea","labelrank":2,"name_he":"קוריאה הדרומית"},"geometry":{"type":"Point","coordinates":[128.13,36.385]}},{"type":"Feature","properties":{"name":"South Africa","labelrank":2,"name_he":"דרום אפריקה"},"geometry":{"type":"Point","coordinates":[23.666,-29.709]}},{"type":"Feature","properties":{"name":"Somalia","labelrank":6,"name_he":"סומליה"},"geometry":{"type":"Point","coordinates":[45.192,3.569]}},{"type":"Feature","properties":{"name":"Somaliland","labelrank":5,"name_he":"סומלילנד"},"geometry":{"type":"Point","coordinates":[46.732,9.444]}},{"type":"Feature","properties":{"name":"Solomon Is.","labelrank":3,"name_he":"איי שלמה"},"geometry":{"type":"Point","coordinates":[159.17,-8.03]}},{"type":"Feature","properties":{"name":"Slovakia","labelrank":6,"name_he":"סלובקיה"},"geometry":{"type":"Point","coordinates":[19.05,48.734]}},{"type":"Feature","properties":{"name":"Slovenia","labelrank":6,"name_he":"סלובניה"},"geometry":{"type":"Point","coordinates":[14.915,46.061]}},{"type":"Feature","properties":{"name":"Singapore","labelrank":6,"name_he":"סינגפור"},"geometry":{"type":"Point","coordinates":[103.817,1.367]}},{"type":"Feature","properties":{"name":"Sierra Leone","labelrank":4,"name_he":"סיירה לאון"},"geometry":{"type":"Point","coordinates":[-11.764,8.617]}},{"type":"Feature","properties":{"name":"Seychelles","labelrank":6,"name_he":"סיישל"},"geometry":{"type":"Point","coordinates":[55.48,-4.677]}},{"type":"Feature","properties":{"name":"Serbia","labelrank":5,"name_he":"סרביה"},"geometry":{"type":"Point","coordinates":[20.788,44.19]}},{"type":"Feature","properties":{"name":"Senegal","labelrank":3,"name_he":"סנגל"},"geometry":{"type":"Point","coordinates":[-14.779,15.138]}},{"type":"Feature","properties":{"name":"Saudi Arabia","labelrank":2,"name_he":"ערב הסעודית"},"geometry":{"type":"Point","coordinates":[44.7,23.807]}},{"type":"Feature","properties":{"name":"São Tomé and Principe","labelrank":6,"name_he":"סאו טומה ופרינסיפה"},"geometry":{"type":"Point","coordinates":[7.021,0.971]}},{"type":"Feature","properties":{"name":"San Marino","labelrank":6,"name_he":"סן מרינו"},"geometry":{"type":"Point","coordinates":[12.441,43.934]}},{"type":"Feature","properties":{"name":"Samoa","labelrank":4,"name_he":"סמואה"},"geometry":{"type":"Point","coordinates":[-172.438,-13.639]}},{"type":"Feature","properties":{"name":"St. Vin. and Gren.","labelrank":6,"name_he":"סנט וינסנט והגרנדינים"},"geometry":{"type":"Point","coordinates":[-61.336,13.088]}},{"type":"Feature","properties":{"name":"Saint Lucia","labelrank":6,"name_he":"סנט לוסיה"},"geometry":{"type":"Point","coordinates":[-60.98,13.892]}},{"type":"Feature","properties":{"name":"St. Kitts and Nevis","labelrank":6,"name_he":"סנט קיטס ונוויס"},"geometry":{"type":"Point","coordinates":[-62.758,17.337]}},{"type":"Feature","properties":{"name":"Rwanda","labelrank":3,"name_he":"רואנדה"},"geometry":{"type":"Point","coordinates":[30.104,-1.897]}},{"type":"Feature","properties":{"name":"Russia","labelrank":2,"name_he":"רוסיה"},"geometry":{"type":"Point","coordinates":[44.686,58.249]}},{"type":"Feature","properties":{"name":"Romania","labelrank":3,"name_he":"רומניה"},"geometry":{"type":"Point","coordinates":[24.973,45.733]}},{"type":"Feature","properties":{"name":"Qatar","labelrank":5,"name_he":"קטר"},"geometry":{"type":"Point","coordinates":[51.144,25.237]}},{"type":"Feature","properties":{"name":"Portugal","labelrank":2,"name_he":"פורטוגל"},"geometry":{"type":"Point","coordinates":[-8.272,39.607]}},{"type":"Feature","properties":{"name":"Poland","labelrank":3,"name_he":"פולין"},"geometry":{"type":"Point","coordinates":[19.49,51.99]}},{"type":"Feature","properties":{"name":"Philippines","labelrank":2,"name_he":"הפיליפינים"},"geometry":{"type":"Point","coordinates":[122.465,11.198]}},{"type":"Feature","properties":{"name":"Peru","labelrank":2,"name_he":"פרו"},"geometry":{"type":"Point","coordinates":[-72.9,-12.977]}},{"type":"Feature","properties":{"name":"Paraguay","labelrank":4,"name_he":"פרגוואי"},"geometry":{"type":"Point","coordinates":[-60.146,-21.675]}},{"type":"Feature","properties":{"name":"Papua New Guinea","labelrank":2,"name_he":"פפואה גינאה החדשה"},"geometry":{"type":"Point","coordinates":[143.91,-5.695]}},{"type":"Feature","properties":{"name":"Panama","labelrank":4,"name_he":"פנמה"},"geometry":{"type":"Point","coordinates":[-80.352,8.722]}},{"type":"Feature","properties":{"name":"Palau","labelrank":6,"name_he":"פלאו"},"geometry":{"type":"Point","coordinates":[134.58,7.518]}},{"type":"Feature","properties":{"name":"Pakistan","labelrank":2,"name_he":"פקיסטן"},"geometry":{"type":"Point","coordinates":[68.546,29.328]}},{"type":"Feature","properties":{"name":"Oman","labelrank":4,"name_he":"עומאן"},"geometry":{"type":"Point","coordinates":[57.337,22.12]}},{"type":"Feature","properties":{"name":"Norway","labelrank":3,"name_he":"נורווגיה"},"geometry":{"type":"Point","coordinates":[9.68,61.357]}},{"type":"Feature","properties":{"name":"North Korea","labelrank":3,"name_he":"קוריאה הצפונית"},"geometry":{"type":"Point","coordinates":[126.445,39.885]}},{"type":"Feature","properties":{"name":"Nigeria","labelrank":2,"name_he":"ניגריה"},"geometry":{"type":"Point","coordinates":[7.503,9.44]}},{"type":"Feature","properties":{"name":"Niger","labelrank":3,"name_he":"ניז'ר"},"geometry":{"type":"Point","coordinates":[9.504,17.446]}},{"type":"Feature","properties":{"name":"Nicaragua","labelrank":5,"name_he":"ניקרגואה"},"geometry":{"type":"Point","coordinates":[-85.069,12.671]}},{"type":"Feature","properties":{"name":"New Zealand","labelrank":2,"name_he":"ניו זילנד"},"geometry":{"type":"Point","coordinates":[172.787,-39.759]}},{"type":"Feature","properties":{"name":"Niue","labelrank":4,"name_he":"ניואה"},"geometry":{"type":"Point","coordinates":[-169.863,-19.046]}},{"type":"Feature","properties":{"name":"Cook Is.","labelrank":4,"name_he":"איי קוק"},"geometry":{"type":"Point","coordinates":[-159.786,-21.216]}},{"type":"Feature","properties":{"name":"Netherlands","labelrank":5,"name_he":"הולנד"},"geometry":{"type":"Point","coordinates":[5.611,52.422]}},{"type":"Feature","properties":{"name":"Aruba","labelrank":5,"name_he":"ארובה"},"geometry":{"type":"Point","coordinates":[-69.973,12.517]}},{"type":"Feature","properties":{"name":"Curaçao","labelrank":5,"name_he":"קוראסאו"},"geometry":{"type":"Point","coordinates":[-68.921,12.145]}},{"type":"Feature","properties":{"name":"Nepal","labelrank":3,"name_he":"נפאל"},"geometry":{"type":"Point","coordinates":[83.64,28.298]}},{"type":"Feature","properties":{"name":"Nauru","labelrank":6,"name_he":"נאורו"},"geometry":{"type":"Point","coordinates":[166.933,-0.52]}},{"type":"Feature","properties":{"name":"Namibia","labelrank":3,"name_he":"נמיביה"},"geometry":{"type":"Point","coordinates":[17.108,-20.575]}},{"type":"Feature","properties":{"name":"Mozambique","labelrank":3,"name_he":"מוזמביק"},"geometry":{"type":"Point","coordinates":[37.838,-13.943]}},{"type":"Feature","properties":{"name":"Morocco","labelrank":3,"name_he":"מרוקו"},"geometry":{"type":"Point","coordinates":[-7.187,31.651]}},{"type":"Feature","properties":{"name":"W. Sahara","labelrank":7,"name_he":"סהרה המערבית"},"geometry":{"type":"Point","coordinates":[-12.63,23.968]}},{"type":"Feature","properties":{"name":"Montenegro","labelrank":6,"name_he":"מונטנגרו"},"geometry":{"type":"Point","coordinates":[19.144,42.803]}},{"type":"Feature","properties":{"name":"Mongolia","labelrank":3,"name_he":"מונגוליה"},"geometry":{"type":"Point","coordinates":[104.15,45.997]}},{"type":"Feature","properties":{"name":"Moldova","labelrank":6,"name_he":"מולדובה"},"geometry":{"type":"Point","coordinates":[28.488,47.435]}},{"type":"Feature","properties":{"name":"Monaco","labelrank":6,"name_he":"מונקו"},"geometry":{"type":"Point","coordinates":[7.398,43.74]}},{"type":"Feature","properties":{"name":"Mexico","labelrank":2,"name_he":"מקסיקו"},"geometry":{"type":"Point","coordinates":[-102.289,23.92]}},{"type":"Feature","properties":{"name":"Mauritius","labelrank":5,"name_he":"מאוריציוס"},"geometry":{"type":"Point","coordinates":[57.566,-20.3]}},{"type":"Feature","properties":{"name":"Mauritania","labelrank":3,"name_he":"מאוריטניה"},"geometry":{"type":"Point","coordinates":[-9.74,19.587]}},{"type":"Feature","properties":{"name":"Malta","labelrank":5,"name_he":"מלטה"},"geometry":{"type":"Point","coordinates":[14.433,35.893]}},{"type":"Feature","properties":{"name":"Mali","labelrank":3,"name_he":"מאלי"},"geometry":{"type":"Point","coordinates":[-2.038,18.693]}},{"type":"Feature","properties":{"name":"Maldives","labelrank":5,"name_he":"האיים המלדיביים"},"geometry":{"type":"Point","coordinates":[73.508,4.174]}},{"type":"Feature","properties":{"name":"Malaysia","labelrank":3,"name_he":"מלזיה"},"geometry":{"type":"Point","coordinates":[113.837,2.529]}},{"type":"Feature","properties":{"name":"Malawi","labelrank":6,"name_he":"מלאווי"},"geometry":{"type":"Point","coordinates":[33.608,-13.387]}},{"type":"Feature","properties":{"name":"Madagascar","labelrank":3,"name_he":"מדגסקר"},"geometry":{"type":"Point","coordinates":[46.704,-18.628]}},{"type":"Feature","properties":{"name":"North Macedonia","labelrank":6,"name_he":"מקדוניה הצפונית"},"geometry":{"type":"Point","coordinates":[21.556,41.558]}},{"type":"Feature","properties":{"name":"Luxembourg","labelrank":6,"name_he":"לוקסמבורג"},"geometry":{"type":"Point","coordinates":[6.078,49.734]}},{"type":"Feature","properties":{"name":"Lithuania","labelrank":5,"name_he":"ליטא"},"geometry":{"type":"Point","coordinates":[24.09,55.104]}},{"type":"Feature","properties":{"name":"Liechtenstein","labelrank":6,"name_he":"ליכטנשטיין"},"geometry":{"type":"Point","coordinates":[9.559,47.111]}},{"type":"Feature","properties":{"name":"Libya","labelrank":3,"name_he":"לוב"},"geometry":{"type":"Point","coordinates":[18.011,26.639]}},{"type":"Feature","properties":{"name":"Liberia","labelrank":4,"name_he":"ליבריה"},"geometry":{"type":"Point","coordinates":[-9.46,6.447]}},{"type":"Feature","properties":{"name":"Lesotho","labelrank":6,"name_he":"לסוטו"},"geometry":{"type":"Point","coordinates":[28.247,-29.48]}},{"type":"Feature","properties":{"name":"Lebanon","labelrank":5,"name_he":"לבנון"},"geometry":{"type":"Point","coordinates":[35.993,34.133]}},{"type":"Feature","properties":{"name":"Latvia","labelrank":5,"name_he":"לטביה"},"geometry":{"type":"Point","coordinates":[25.459,57.067]}},{"type":"Feature","properties":{"name":"Laos","labelrank":4,"name_he":"לאוס"},"geometry":{"type":"Point","coordinates":[102.534,19.432]}},{"type":"Feature","properties":{"name":"Kyrgyzstan","labelrank":4,"name_he":"קירגיזסטן"},"geometry":{"type":"Point","coordinates":[74.533,41.669]}},{"type":"Feature","properties":{"name":"Kuwait","labelrank":6,"name_he":"כווית"},"geometry":{"type":"Point","coordinates":[47.314,29.414]}},{"type":"Feature","properties":{"name":"Kosovo","labelrank":6,"name_he":"קוסובו"},"geometry":{"type":"Point","coordinates":[20.861,42.594]}},{"type":"Feature","properties":{"name":"Kiribati","labelrank":6,"name_he":"קיריבטי"},"geometry":{"type":"Point","coordinates":[-157.385,1.82]}},{"type":"Feature","properties":{"name":"Kenya","labelrank":2,"name_he":"קניה"},"geometry":{"type":"Point","coordinates":[37.908,0.549]}},{"type":"Feature","properties":{"name":"Kazakhstan","labelrank":3,"name_he":"קזחסטן"},"geometry":{"type":"Point","coordinates":[68.686,49.054]}},{"type":"Feature","properties":{"name":"Jordan","labelrank":4,"name_he":"ירדן"},"geometry":{"type":"Point","coordinates":[36.376,30.805]}},{"type":"Feature","properties":{"name":"Japan","labelrank":2,"name_he":"יפן"},"geometry":{"type":"Point","coordinates":[138.442,36.143]}},{"type":"Feature","properties":{"name":"Jamaica","labelrank":4,"name_he":"ג'מייקה"},"geometry":{"type":"Point","coordinates":[-77.319,18.137]}},{"type":"Feature","properties":{"name":"Italy","labelrank":2,"name_he":"איטליה"},"geometry":{"type":"Point","coordinates":[11.077,44.732]}},{"type":"Feature","properties":{"name":"Israel","labelrank":4,"name_he":"ישראל"},"geometry":{"type":"Point","coordinates":[34.848,30.911]}},{"type":"Feature","properties":{"name":"Palestine","labelrank":5,"name_he":"ארץ ישראל"},"geometry":{"type":"Point","coordinates":[35.291,32.047]}},{"type":"Feature","properties":{"name":"Ireland","labelrank":3,"name_he":"אירלנד"},"geometry":{"type":"Point","coordinates":[-7.799,53.079]}},{"type":"Feature","properties":{"name":"Iraq","labelrank":3,"name_he":"עיראק"},"geometry":{"type":"Point","coordinates":[43.262,33.094]}},{"type":"Feature","properties":{"name":"Iran","labelrank":2,"name_he":"איראן"},"geometry":{"type":"Point","coordinates":[54.931,32.166]}},{"type":"Feature","properties":{"name":"Indonesia","labelrank":2,"name_he":"אינדונזיה"},"geometry":{"type":"Point","coordinates":[101.893,-0.954]}},{"type":"Feature","properties":{"name":"India","labelrank":2,"name_he":"הודו"},"geometry":{"type":"Point","coordinates":[79.358,22.687]}},{"type":"Feature","properties":{"name":"Iceland","labelrank":3,"name_he":"איסלנד"},"geometry":{"type":"Point","coordinates":[-18.674,64.779]}},{"type":"Feature","properties":{"name":"Hungary","labelrank":5,"name_he":"הונגריה"},"geometry":{"type":"Point","coordinates":[19.448,47.087]}},{"type":"Feature","properties":{"name":"Honduras","labelrank":5,"name_he":"הונדורס"},"geometry":{"type":"Point","coordinates":[-86.888,14.795]}},{"type":"Feature","properties":{"name":"Haiti","labelrank":5,"name_he":"האיטי"},"geometry":{"type":"Point","coordinates":[-72.224,19.264]}},{"type":"Feature","properties":{"name":"Guyana","labelrank":4,"name_he":"גיאנה"},"geometry":{"type":"Point","coordinates":[-58.943,5.124]}},{"type":"Feature","properties":{"name":"Guinea-Bissau","labelrank":6,"name_he":"גינאה ביסאו"},"geometry":{"type":"Point","coordinates":[-14.524,12.164]}},{"type":"Feature","properties":{"name":"Guinea","labelrank":3,"name_he":"גינאה"},"geometry":{"type":"Point","coordinates":[-10.016,10.619]}},{"type":"Feature","properties":{"name":"Guatemala","labelrank":3,"name_he":"גואטמלה"},"geometry":{"type":"Point","coordinates":[-90.497,14.982]}},{"type":"Feature","properties":{"name":"Grenada","labelrank":6,"name_he":"גרנדה"},"geometry":{"type":"Point","coordinates":[-61.68,12.113]}},{"type":"Feature","properties":{"name":"Greece","labelrank":3,"name_he":"יוון"},"geometry":{"type":"Point","coordinates":[21.726,39.493]}},{"type":"Feature","properties":{"name":"Ghana","labelrank":3,"name_he":"גאנה"},"geometry":{"type":"Point","coordinates":[-1.037,7.718]}},{"type":"Feature","properties":{"name":"Germany","labelrank":2,"name_he":"גרמניה"},"geometry":{"type":"Point","coordinates":[9.678,50.962]}},{"type":"Feature","properties":{"name":"Georgia","labelrank":5,"name_he":"גאורגיה"},"geometry":{"type":"Point","coordinates":[43.736,41.87]}},{"type":"Feature","properties":{"name":"Gambia","labelrank":6,"name_he":"גמביה"},"geometry":{"type":"Point","coordinates":[-14.998,13.642]}},{"type":"Feature","properties":{"name":"Gabon","labelrank":4,"name_he":"גבון"},"geometry":{"type":"Point","coordinates":[11.836,-0.438]}},{"type":"Feature","properties":{"name":"France","labelrank":2,"name_he":"צרפת"},"geometry":{"type":"Point","coordinates":[2.552,46.696]}},{"type":"Feature","properties":{"name":"St. Pierre and Miquelon","labelrank":4,"name_he":"סן-פייר ומיקלון"},"geometry":{"type":"Point","coordinates":[-56.332,47.04]}},{"type":"Feature","properties":{"name":"Wallis and Futuna Is.","labelrank":4,"name_he":"ואליס ופוטונה"},"geometry":{"type":"Point","coordinates":[-178.137,-14.286]}},{"type":"Feature","properties":{"name":"St-Martin","labelrank":6,"name_he":"סן מרטן"},"geometry":{"type":"Point","coordinates":[-63.049,18.081]}},{"type":"Feature","properties":{"name":"St-Barthélemy","labelrank":6,"name_he":"סן ברתלמי"},"geometry":{"type":"Point","coordinates":[-62.833,17.902]}},{"type":"Feature","properties":{"name":"Fr. Polynesia","labelrank":4,"name_he":"פולינזיה הצרפתית"},"geometry":{"type":"Point","coordinates":[-149.462,-17.628]}},{"type":"Feature","properties":{"name":"New Caledonia","labelrank":3,"name_he":"קלדוניה החדשה"},"geometry":{"type":"Point","coordinates":[165.084,-21.065]}},{"type":"Feature","properties":{"name":"Fr. S. Antarctic Lands","labelrank":6,"name_he":"הארצות הדרומיות והאנטארקטיות של צרפת"},"geometry":{"type":"Point","coordinates":[69.122,-49.304]}},{"type":"Feature","properties":{"name":"Åland","labelrank":6,"name_he":"אולנד"},"geometry":{"type":"Point","coordinates":[19.87,60.156]}},{"type":"Feature","properties":{"name":"Finland","labelrank":3,"name_he":"פינלנד"},"geometry":{"type":"Point","coordinates":[27.276,63.252]}},{"type":"Feature","properties":{"name":"Fiji","labelrank":6,"name_he":"פיג'י"},"geometry":{"type":"Point","coordinates":[177.975,-17.826]}},{"type":"Feature","properties":{"name":"Ethiopia","labelrank":2,"name_he":"אתיופיה"},"geometry":{"type":"Point","coordinates":[39.089,8.033]}},{"type":"Feature","properties":{"name":"Estonia","labelrank":6,"name_he":"אסטוניה"},"geometry":{"type":"Point","coordinates":[25.867,58.725]}},{"type":"Feature","properties":{"name":"Eritrea","labelrank":4,"name_he":"אריתריאה"},"geometry":{"type":"Point","coordinates":[38.286,15.787]}},{"type":"Feature","properties":{"name":"Eq. Guinea","labelrank":4,"name_he":"גינאה המשוונית"},"geometry":{"type":"Point","coordinates":[8.99,2.333]}},{"type":"Feature","properties":{"name":"El Salvador","labelrank":6,"name_he":"אל סלוודור"},"geometry":{"type":"Point","coordinates":[-88.89,13.685]}},{"type":"Feature","properties":{"name":"Egypt","labelrank":2,"name_he":"מצרים"},"geometry":{"type":"Point","coordinates":[29.446,26.186]}},{"type":"Feature","properties":{"name":"Ecuador","labelrank":3,"name_he":"אקוודור"},"geometry":{"type":"Point","coordinates":[-78.188,-1.259]}},{"type":"Feature","properties":{"name":"Dominican Rep.","labelrank":5,"name_he":"הרפובליקה הדומיניקנית"},"geometry":{"type":"Point","coordinates":[-70.654,19.104]}},{"type":"Feature","properties":{"name":"Dominica","labelrank":6,"name_he":"דומיניקה"},"geometry":{"type":"Point","coordinates":[-61.345,15.459]}},{"type":"Feature","properties":{"name":"Djibouti","labelrank":5,"name_he":"ג'יבוטי"},"geometry":{"type":"Point","coordinates":[42.499,11.976]}},{"type":"Feature","properties":{"name":"Greenland","labelrank":3,"name_he":"גרינלנד"},"geometry":{"type":"Point","coordinates":[-39.335,74.319]}},{"type":"Feature","properties":{"name":"Faeroe Is.","labelrank":6,"name_he":"איי פארו"},"geometry":{"type":"Point","coordinates":[-7.058,62.186]}},{"type":"Feature","properties":{"name":"Denmark","labelrank":4,"name_he":"דנמרק"},"geometry":{"type":"Point","coordinates":[9.018,55.967]}},{"type":"Feature","properties":{"name":"Czechia","labelrank":5,"name_he":"צ'כיה"},"geometry":{"type":"Point","coordinates":[15.378,49.882]}},{"type":"Feature","properties":{"name":"N. Cyprus","labelrank":6,"name_he":"הרפובליקה הטורקית של צפון קפריסין"},"geometry":{"type":"Point","coordinates":[33.692,35.216]}},{"type":"Feature","properties":{"name":"Cyprus","labelrank":5,"name_he":"קפריסין"},"geometry":{"type":"Point","coordinates":[33.084,34.913]}},{"type":"Feature","properties":{"name":"Cuba","labelrank":3,"name_he":"קובה"},"geometry":{"type":"Point","coordinates":[-77.976,21.334]}},{"type":"Feature","properties":{"name":"Croatia","labelrank":6,"name_he":"קרואטיה"},"geometry":{"type":"Point","coordinates":[16.372,45.806]}},{"type":"Feature","properties":{"name":"Côte d'Ivoire","labelrank":3,"name_he":"חוף השנהב"},"geometry":{"type":"Point","coordinates":[-5.569,7.491]}},{"type":"Feature","properties":{"name":"Costa Rica","labelrank":5,"name_he":"קוסטה ריקה"},"geometry":{"type":"Point","coordinates":[-84.078,10.065]}},{"type":"Feature","properties":{"name":"Dem. Rep. Congo","labelrank":2,"name_he":"הרפובליקה הדמוקרטית של קונגו"},"geometry":{"type":"Point","coordinates":[23.459,-1.858]}},{"type":"Feature","properties":{"name":"Congo","labelrank":4,"name_he":"הרפובליקה של קונגו"},"geometry":{"type":"Point","coordinates":[15.9,0.142]}},{"type":"Feature","properties":{"name":"Comoros","labelrank":6,"name_he":"קומורו"},"geometry":{"type":"Point","coordinates":[43.318,-11.728]}},{"type":"Feature","properties":{"name":"Colombia","labelrank":2,"name_he":"קולומביה"},"geometry":{"type":"Point","coordinates":[-73.174,3.373]}},{"type":"Feature","properties":{"name":"China","labelrank":2,"name_he":"הרפובליקה העממית של סין"},"geometry":{"type":"Point","coordinates":[106.337,32.498]}},{"type":"Feature","properties":{"name":"Macao","labelrank":4,"name_he":"מקאו"},"geometry":{"type":"Point","coordinates":[113.556,22.13]}},{"type":"Feature","properties":{"name":"Hong Kong","labelrank":4,"name_he":"הונג קונג"},"geometry":{"type":"Point","coordinates":[114.098,22.449]}},{"type":"Feature","properties":{"name":"Chile","labelrank":2,"name_he":"צ'ילה"},"geometry":{"type":"Point","coordinates":[-72.319,-38.152]}},{"type":"Feature","properties":{"name":"Chad","labelrank":3,"name_he":"צ'אד"},"geometry":{"type":"Point","coordinates":[18.645,15.143]}},{"type":"Feature","properties":{"name":"Central African Rep.","labelrank":4,"name_he":"הרפובליקה המרכז-אפריקאית"},"geometry":{"type":"Point","coordinates":[20.907,6.99]}},{"type":"Feature","properties":{"name":"Cabo Verde","labelrank":4,"name_he":"כף ורדה"},"geometry":{"type":"Point","coordinates":[-23.639,15.075]}},{"type":"Feature","properties":{"name":"Canada","labelrank":2,"name_he":"קנדה"},"geometry":{"type":"Point","coordinates":[-101.911,60.324]}},{"type":"Feature","properties":{"name":"Cameroon","labelrank":3,"name_he":"קמרון"},"geometry":{"type":"Point","coordinates":[12.473,4.585]}},{"type":"Feature","properties":{"name":"Cambodia","labelrank":3,"name_he":"קמבודיה"},"geometry":{"type":"Point","coordinates":[104.505,12.648]}},{"type":"Feature","properties":{"name":"Myanmar","labelrank":3,"name_he":"מיאנמר"},"geometry":{"type":"Point","coordinates":[95.804,21.574]}},{"type":"Feature","properties":{"name":"Burundi","labelrank":6,"name_he":"בורונדי"},"geometry":{"type":"Point","coordinates":[29.917,-3.333]}},{"type":"Feature","properties":{"name":"Burkina Faso","labelrank":3,"name_he":"בורקינה פאסו"},"geometry":{"type":"Point","coordinates":[-1.364,12.673]}},{"type":"Feature","properties":{"name":"Bulgaria","labelrank":4,"name_he":"בולגריה"},"geometry":{"type":"Point","coordinates":[25.157,42.509]}},{"type":"Feature","properties":{"name":"Brunei","labelrank":6,"name_he":"ברוניי"},"geometry":{"type":"Point","coordinates":[114.552,4.448]}},{"type":"Feature","properties":{"name":"Brazil","labelrank":2,"name_he":"ברזיל"},"geometry":{"type":"Point","coordinates":[-49.559,-12.099]}},{"type":"Feature","properties":{"name":"Botswana","labelrank":4,"name_he":"בוטסואנה"},"geometry":{"type":"Point","coordinates":[24.179,-22.103]}},{"type":"Feature","properties":{"name":"Bosnia and Herz.","labelrank":5,"name_he":"בוסניה והרצגובינה"},"geometry":{"type":"Point","coordinates":[18.068,44.091]}},{"type":"Feature","properties":{"name":"Bolivia","labelrank":3,"name_he":"בוליביה"},"geometry":{"type":"Point","coordinates":[-64.593,-16.666]}},{"type":"Feature","properties":{"name":"Bhutan","labelrank":5,"name_he":"בהוטן"},"geometry":{"type":"Point","coordinates":[90.04,27.537]}},{"type":"Feature","properties":{"name":"Benin","labelrank":5,"name_he":"בנין"},"geometry":{"type":"Point","coordinates":[2.352,10.325]}},{"type":"Feature","properties":{"name":"Belize","labelrank":6,"name_he":"בליז"},"geometry":{"type":"Point","coordinates":[-88.713,17.202]}},{"type":"Feature","properties":{"name":"Belgium","labelrank":2,"name_he":"בלגיה"},"geometry":{"type":"Point","coordinates":[4.8,50.785]}},{"type":"Feature","properties":{"name":"Belarus","labelrank":4,"name_he":"בלארוס"},"geometry":{"type":"Point","coordinates":[28.418,53.822]}},{"type":"Feature","properties":{"name":"Barbados","labelrank":5,"name_he":"ברבדוס"},"geometry":{"type":"Point","coordinates":[-59.569,13.164]}},{"type":"Feature","properties":{"name":"Bangladesh","labelrank":3,"name_he":"בנגלדש"},"geometry":{"type":"Point","coordinates":[89.685,24.215]}},{"type":"Feature","properties":{"name":"Bahrain","labelrank":4,"name_he":"בחריין"},"geometry":{"type":"Point","coordinates":[50.555,26.056]}},{"type":"Feature","properties":{"name":"Bahamas","labelrank":4,"name_he":"איי בהאמה"},"geometry":{"type":"Point","coordinates":[-77.147,26.402]}},{"type":"Feature","properties":{"name":"Azerbaijan","labelrank":5,"name_he":"אזרבייג'ן"},"geometry":{"type":"Point","coordinates":[47.211,40.402]}},{"type":"Feature","properties":{"name":"Austria","labelrank":4,"name_he":"אוסטריה"},"geometry":{"type":"Point","coordinates":[14.131,47.519]}},{"type":"Feature","properties":{"name":"Australia","labelrank":2,"name_he":"אוסטרליה"},"geometry":{"type":"Point","coordinates":[134.05,-24.13]}},{"type":"Feature","properties":{"name":"Indian Ocean Ter.","labelrank":5,"name_he":"טריטוריה של האוקיינוס ההודי"},"geometry":{"type":"Point","coordinates":[105.673,-10.491]}},{"type":"Feature","properties":{"name":"Heard I. and McDonald Is.","labelrank":5,"name_he":"האי הרד ואיי מקדונלד"},"geometry":{"type":"Point","coordinates":[73.505,-53.103]}},{"type":"Feature","properties":{"name":"Norfolk Island","labelrank":5,"name_he":"נורפוק"},"geometry":{"type":"Point","coordinates":[167.955,-29.033]}},{"type":"Feature","properties":{"name":"Ashmore and Cartier Is.","labelrank":5,"name_he":"איי אשמור וקרטייה"},"geometry":{"type":"Point","coordinates":[123.586,-12.433]}},{"type":"Feature","properties":{"name":"Armenia","labelrank":6,"name_he":"ארמניה"},"geometry":{"type":"Point","coordinates":[44.801,40.459]}},{"type":"Feature","properties":{"name":"Argentina","labelrank":2,"name_he":"ארגנטינה"},"geometry":{"type":"Point","coordinates":[-64.173,-33.501]}},{"type":"Feature","properties":{"name":"Antigua and Barb.","labelrank":6,"name_he":"אנטיגואה וברבודה"},"geometry":{"type":"Point","coordinates":[-61.791,17.352]}},{"type":"Feature","properties":{"name":"Angola","labelrank":3,"name_he":"אנגולה"},"geometry":{"type":"Point","coordinates":[17.984,-12.183]}},{"type":"Feature","properties":{"name":"Andorra","labelrank":6,"name_he":"אנדורה"},"geometry":{"type":"Point","coordinates":[1.539,42.548]}},{"type":"Feature","properties":{"name":"Algeria","labelrank":3,"name_he":"אלג'יריה"},"geometry":{"type":"Point","coordinates":[2.808,27.397]}},{"type":"Feature","properties":{"name":"Albania","labelrank":6,"name_he":"אלבניה"},"geometry":{"type":"Point","coordinates":[20.114,40.655]}},{"type":"Feature","properties":{"name":"Afghanistan","labelrank":3,"name_he":"אפגניסטן"},"geometry":{"type":"Point","coordinates":[66.497,34.164]}},{"type":"Feature","properties":{"name":"Siachen Glacier","labelrank":5,"name_he":"קרחון סיאצ'ן"},"geometry":{"type":"Point","coordinates":[77.13,35.341]}},{"type":"Feature","properties":{"name":"Antarctica","labelrank":4,"name_he":"אנטארקטיקה"},"geometry":{"type":"Point","coordinates":[35.885,-79.843]}},{"type":"Feature","properties":{"name":"Sint Maarten","labelrank":6,"name_he":"סנט מארטן"},"geometry":{"type":"Point","coordinates":[-63.07,18.041]}},{"type":"Feature","properties":{"name":"Tuvalu","labelrank":6,"name_he":"טובאלו"},"geometry":{"type":"Point","coordinates":[179.21,-8.514]}}]}